{"type": "FeatureCollection", "features": [ {"type": "Feature", "properties": {"norad_id": 66567, "name": "STARLINK-35825", "group": "last-30-days", "lat": -6.9552866772051365, "lon": 134.10588354580048, "alt_km": 415.3837690167484, "timestamp": "2025-12-09T05:43:19.509756+00:00", "meta": {"OBJECT_NAME": "STARLINK-35825", "OBJECT_ID": "2025-268L", "EPOCH": "2025-12-08T20:00:01.999008", "MEAN_MOTION": 15.52086079, "ECCENTRICITY": 0.0001566, "INCLINATION": 43.0004, "RA_OF_ASC_NODE": 144.0006, "ARG_OF_PERICENTER": 271.7111, "MEAN_ANOMALY": 333.2573, "EPHEMERIS_TYPE": 0, "CLASSIFICATION_TYPE": "U", "NORAD_CAT_ID": 66567, "ELEMENT_SET_NO": 999, "REV_AT_EPOCH": 404, "BSTAR": -0.03198, "MEAN_MOTION_DOT": -0.01762226, "MEAN_MOTION_DDOT": 0}, "tle": {"line1": "1 66567U 25268L   25342.83335647 -.01762226  00000+0 -31980-1 0  9997", "line2": "2 66567  43.0004 144.0006 0001566 271.7111 333.2573 15.52086079  4043"}}, "geometry": {"type": "Point", "coordinates": [134.10588354580048, -6.9552866772051365]}}, {"type": "Feature", "properties": {"norad_id": 66568, "name": "STARLINK-35803", "group": "last-30-days", "lat": -5.658030868299446, "lon": 135.5198246812169, "alt_km": 415.27287618902756, "timestamp": "2025-12-09T05:43:19.509768+00:00", "meta": {"OBJECT_NAME": "STARLINK-35803", "OBJECT_ID": "2025-268M", "EPOCH": "2025-12-08T20:00:01.999008", "MEAN_MOTION": 15.52084544, "ECCENTRICITY": 0.0001506, "INCLINATION": 43.0004, "RA_OF_ASC_NODE": 143.9953, "ARG_OF_PERICENTER": 272.1494, "MEAN_ANOMALY": 334.7383, "EPHEMERIS_TYPE": 0, "CLASSIFICATION_TYPE": "U", "NORAD_CAT_ID": 66568, "ELEMENT_SET_NO": 999, "REV_AT_EPOCH": 404, "BSTAR": -0.031976, "MEAN_MOTION_DOT": -0.01761903, "MEAN_MOTION_DDOT": 0}, "tle": {"line1": "1 66568U 25268M   25342.83335647 -.01761903  00000+0 -31976-1 0  9994", "line2": "2 66568  43.0004 143.9953 0001506 272.1494 334.7383 15.52084544  4046"}}, "geometry": {"type": "Point", "coordinates": [135.5198246812169, -5.658030868299446]}}, {"type": "Feature", "properties": {"norad_id": 66569, "name": "STARLINK-35835", "group": "last-30-days", "lat": -4.357745399521483, "lon": 136.92757829184086, "alt_km": 415.1797078872696, "timestamp": "2025-12-09T05:43:19.509783+00:00", "meta": {"OBJECT_NAME": "STARLINK-35835", "OBJECT_ID": "2025-268N", "EPOCH": "2025-12-08T20:00:01.999008", "MEAN_MOTION": 15.52086211, "ECCENTRICITY": 0.000146, "INCLINATION": 43.0005, "RA_OF_ASC_NODE": 143.9906, "ARG_OF_PERICENTER": 271.1951, "MEAN_ANOMALY": 337.6073, "EPHEMERIS_TYPE": 0, "CLASSIFICATION_TYPE": "U", "NORAD_CAT_ID": 66569, "ELEMENT_SET_NO": 999, "REV_AT_EPOCH": 404, "BSTAR": -0.031997, "MEAN_MOTION_DOT": -0.01763011, "MEAN_MOTION_DDOT": 0}, "tle": {"line1": "1 66569U 25268N   25342.83335647 -.01763011  00000+0 -31997-1 0  9990", "line2": "2 66569  43.0005 143.9906 0001460 271.1951 337.6073 15.52086211  4043"}}, "geometry": {"type": "Point", "coordinates": [136.92757829184086, -4.357745399521483]}}, {"type": "Feature", "properties": {"norad_id": 66570, "name": "STARLINK-35834", "group": "last-30-days", "lat": -3.0536342951112565, "lon": 138.33144123818116, "alt_km": 414.92089178347214, "timestamp": "2025-12-09T05:43:19.509793+00:00", "meta": {"OBJECT_NAME": "STARLINK-35834", "OBJECT_ID": "2025-268P", "EPOCH": "2025-12-08T20:00:01.999008", "MEAN_MOTION": 15.52089569, "ECCENTRICITY": 0.0001455, "INCLINATION": 43.0007, "RA_OF_ASC_NODE": 143.9856, "ARG_OF_PERICENTER": 277.1611, "MEAN_ANOMALY": 333.5561, "EPHEMERIS_TYPE": 0, "CLASSIFICATION_TYPE": "U", "NORAD_CAT_ID": 66570, "ELEMENT_SET_NO": 999, "REV_AT_EPOCH": 404, "BSTAR": -0.032037, "MEAN_MOTION_DOT": -0.01765145, "MEAN_MOTION_DDOT": 0}, "tle": {"line1": "1 66570U 25268P   25342.83335647 -.01765145  00000+0 -32037-1 0  9998", "line2": "2 66570  43.0007 143.9856 0001455 277.1611 333.5561 15.52089569  4040"}}, "geometry": {"type": "Point", "coordinates": [138.33144123818116, -3.0536342951112565]}}, {"type": "Feature", "properties": {"norad_id": 66571, "name": "STARLINK-35836", "group": "last-30-days", "lat": -1.7482171321558155, "lon": 139.73178344410067, "alt_km": 414.77570028965056, "timestamp": "2025-12-09T05:43:19.509804+00:00", "meta": {"OBJECT_NAME": "STARLINK-35836", "OBJECT_ID": "2025-268Q", "EPOCH": "2025-12-08T20:00:01.999008", "MEAN_MOTION": 15.52086032, "ECCENTRICITY": 0.0001533, "INCLINATION": 43.0007, "RA_OF_ASC_NODE": 143.9811, "ARG_OF_PERICENTER": 277.347, "MEAN_ANOMALY": 335.2875, "EPHEMERIS_TYPE": 0, "CLASSIFICATION_TYPE": "U", "NORAD_CAT_ID": 66571, "ELEMENT_SET_NO": 999, "REV_AT_EPOCH": 404, "BSTAR": -0.031939, "MEAN_MOTION_DOT": -0.01760203, "MEAN_MOTION_DDOT": 0}, "tle": {"line1": "1 66571U 25268Q   25342.83335647 -.01760203  00000+0 -31939-1 0  9999", "line2": "2 66571  43.0007 143.9811 0001533 277.3470 335.2875 15.52086032  4043"}}, "geometry": {"type": "Point", "coordinates": [139.73178344410067, -1.7482171321558155]}}, {"type": "Feature", "properties": {"norad_id": 66572, "name": "STARLINK-35870", "group": "last-30-days", "lat": -0.44027033499768864, "lon": 141.13225520009803, "alt_km": 414.6713302640974, "timestamp": "2025-12-09T05:43:19.509814+00:00", "meta": {"OBJECT_NAME": "STARLINK-35870", "OBJECT_ID": "2025-268R", "EPOCH": "2025-12-08T20:00:01.999008", "MEAN_MOTION": 15.52091692, "ECCENTRICITY": 0.0001516, "INCLINATION": 43.0007, "RA_OF_ASC_NODE": 143.9771, "ARG_OF_PERICENTER": 276.754, "MEAN_ANOMALY": 337.7979, "EPHEMERIS_TYPE": 0, "CLASSIFICATION_TYPE": "U", "NORAD_CAT_ID": 66572, "ELEMENT_SET_NO": 999, "REV_AT_EPOCH": 404, "BSTAR": -0.032127, "MEAN_MOTION_DOT": -0.01769707, "MEAN_MOTION_DDOT": 0}, "tle": {"line1": "1 66572U 25268R   25342.83335647 -.01769707  00000+0 -32127-1 0  9998", "line2": "2 66572  43.0007 143.9771 0001516 276.7540 337.7979 15.52091692  4041"}}, "geometry": {"type": "Point", "coordinates": [141.13225520009803, -0.44027033499768864]}}, {"type": "Feature", "properties": {"norad_id": 66573, "name": "STARLINK-35650", "group": "last-30-days", "lat": 0.8662899846516903, "lon": 142.52876826497132, "alt_km": 414.4590215684093, "timestamp": "2025-12-09T05:43:19.509824+00:00", "meta": {"OBJECT_NAME": "STARLINK-35650", "OBJECT_ID": "2025-268S", "EPOCH": "2025-12-08T20:00:01.999008", "MEAN_MOTION": 15.52090806, "ECCENTRICITY": 0.0001536, "INCLINATION": 43.0007, "RA_OF_ASC_NODE": 143.9714, "ARG_OF_PERICENTER": 280.2592, "MEAN_ANOMALY": 336.2104, "EPHEMERIS_TYPE": 0, "CLASSIFICATION_TYPE": "U", "NORAD_CAT_ID": 66573, "ELEMENT_SET_NO": 999, "REV_AT_EPOCH": 404, "BSTAR": -0.032132, "MEAN_MOTION_DOT": -0.01769955, "MEAN_MOTION_DDOT": 0}, "tle": {"line1": "1 66573U 25268S   25342.83335647 -.01769955  00000+0 -32132-1 0  9990", "line2": "2 66573  43.0007 143.9714 0001536 280.2592 336.2104 15.52090806  4048"}}, "geometry": {"type": "Point", "coordinates": [142.52876826497132, 0.8662899846516903]}}, {"type": "Feature", "properties": {"norad_id": 66574, "name": "STARLINK-35812", "group": "last-30-days", "lat": 2.172381137225689, "lon": 143.92671374149108, "alt_km": 414.5986565219946, "timestamp": "2025-12-09T05:43:19.509834+00:00", "meta": {"OBJECT_NAME": "STARLINK-35812", "OBJECT_ID": "2025-268T", "EPOCH": "2025-12-08T20:00:01.999008", "MEAN_MOTION": 15.52081689, "ECCENTRICITY": 0.0001666, "INCLINATION": 43.0006, "RA_OF_ASC_NODE": 143.9661, "ARG_OF_PERICENTER": 268.6467, "MEAN_ANOMALY": 349.7418, "EPHEMERIS_TYPE": 0, "CLASSIFICATION_TYPE": "U", "NORAD_CAT_ID": 66574, "ELEMENT_SET_NO": 999, "REV_AT_EPOCH": 404, "BSTAR": -0.031899, "MEAN_MOTION_DOT": -0.01758073, "MEAN_MOTION_DDOT": 0}, "tle": {"line1": "1 66574U 25268T   25342.83335647 -.01758073  00000+0 -31899-1 0  9999", "line2": "2 66574  43.0006 143.9661 0001666 268.6467 349.7418 15.52081689  4040"}}, "geometry": {"type": "Point", "coordinates": [143.92671374149108, 2.172381137225689]}}, {"type": "Feature", "properties": {"norad_id": 66575, "name": "STARLINK-35810", "group": "last-30-days", "lat": 3.4772701573269647, "lon": 145.32768318021334, "alt_km": 414.360725752711, "timestamp": "2025-12-09T05:43:19.509866+00:00", "meta": {"OBJECT_NAME": "STARLINK-35810", "OBJECT_ID": "2025-268U", "EPOCH": "2025-12-08T20:00:01.999008", "MEAN_MOTION": 15.52084482, "ECCENTRICITY": 0.0001578, "INCLINATION": 43.0006, "RA_OF_ASC_NODE": 143.9613, "ARG_OF_PERICENTER": 272.7131, "MEAN_ANOMALY": 347.5912, "EPHEMERIS_TYPE": 0, "CLASSIFICATION_TYPE": "U", "NORAD_CAT_ID": 66575, "ELEMENT_SET_NO": 999, "REV_AT_EPOCH": 404, "BSTAR": -0.031966, "MEAN_MOTION_DOT": -0.01761449, "MEAN_MOTION_DDOT": 0}, "tle": {"line1": "1 66575U 25268U   25342.83335647 -.01761449  00000+0 -31966-1 0  9996", "line2": "2 66575  43.0006 143.9613 0001578 272.7131 347.5912 15.52084482  4043"}}, "geometry": {"type": "Point", "coordinates": [145.32768318021334, 3.4772701573269647]}}, {"type": "Feature", "properties": {"norad_id": 66576, "name": "STARLINK-35814", "group": "last-30-days", "lat": 4.7802556890057675, "lon": 146.7327434491681, "alt_km": 414.2917561814629, "timestamp": "2025-12-09T05:43:19.509880+00:00", "meta": {"OBJECT_NAME": "STARLINK-35814", "OBJECT_ID": "2025-268V", "EPOCH": "2025-12-08T20:00:01.999008", "MEAN_MOTION": 15.52084888, "ECCENTRICITY": 0.0001452, "INCLINATION": 43.0007, "RA_OF_ASC_NODE": 143.9565, "ARG_OF_PERICENTER": 269.576, "MEAN_ANOMALY": 352.6469, "EPHEMERIS_TYPE": 0, "CLASSIFICATION_TYPE": "U", "NORAD_CAT_ID": 66576, "ELEMENT_SET_NO": 999, "REV_AT_EPOCH": 404, "BSTAR": -0.031998, "MEAN_MOTION_DOT": -0.01763001, "MEAN_MOTION_DDOT": 0}, "tle": {"line1": "1 66576U 25268V   25342.83335647 -.01763001  00000+0 -31998-1 0  9998", "line2": "2 66576  43.0007 143.9565 0001452 269.5760 352.6469 15.52084888  4048"}}, "geometry": {"type": "Point", "coordinates": [146.7327434491681, 4.7802556890057675]}}]}